{"type": "FeatureCollection", "features": [ {"type": "Feature", "properties": {"norad_id": 36533, "name": "COSMOS 2251 DEB", "group": "cosmos-2251-debris", "lat": 58.57035503379348, "lon": -77.96048626578828, "alt_km": 753.7401388950902, "timestamp": "2025-12-04T15:47:54.496572+00:00", "meta": {"OBJECT_NAME": "COSMOS 2251 DEB", "OBJECT_ID": "1993-036BCT", "EPOCH": "2025-12-04T03:39:46.792224", "MEAN_MOTION": 14.49765129, "ECCENTRICITY": 0.00490493, "INCLINATION": 74.0108, "RA_OF_ASC_NODE": 130.9716, "ARG_OF_PERICENTER": 281.613, "MEAN_ANOMALY": 77.9527, "EPHEMERIS_TYPE": 0, "CLASSIFICATION_TYPE": "U", "NORAD_CAT_ID": 36533, "ELEMENT_SET_NO": 999, "REV_AT_EPOCH": 84360, "BSTAR": 0.00080793956, "MEAN_MOTION_DOT": 3.134e-05, "MEAN_MOTION_DDOT": 0}, "tle": {"line1": "1 36533U 93036BCT 25338.15262491  .00003134  00000+0  80794-3 0  9993", "line2": "2 36533  74.0108 130.9716 0049049 281.6130  77.9527 14.49765129843602"}}, "geometry": {"type": "Point", "coordinates": [-77.96048626578828, 58.57035503379348]}}, {"type": "Feature", "properties": {"norad_id": 36539, "name": "COSMOS 2251 DEB", "group": "cosmos-2251-debris", "lat": 41.498968117154945, "lon": 85.2763838248135, "alt_km": 711.5005692009772, "timestamp": "2025-12-04T15:47:54.496582+00:00", "meta": {"OBJECT_NAME": "COSMOS 2251 DEB", "OBJECT_ID": "1993-036BCZ", "EPOCH": "2025-12-04T07:22:17.181120", "MEAN_MOTION": 14.59207396, "ECCENTRICITY": 0.00277135, "INCLINATION": 74.0244, "RA_OF_ASC_NODE": 71.2645, "ARG_OF_PERICENTER": 217.6193, "MEAN_ANOMALY": 142.3035, "EPHEMERIS_TYPE": 0, "CLASSIFICATION_TYPE": "U", "NORAD_CAT_ID": 36539, "ELEMENT_SET_NO": 999, "REV_AT_EPOCH": 83824, "BSTAR": 0.0018301533, "MEAN_MOTION_DOT": 8.659e-05, "MEAN_MOTION_DDOT": 0}, "tle": {"line1": "1 36539U 93036BCZ 25338.30714330  .00008659  00000+0  18302-2 0  9992", "line2": "2 36539  74.0244  71.2645 0027713 217.6193 142.3035 14.59207396838242"}}, "geometry": {"type": "Point", "coordinates": [85.2763838248135, 41.498968117154945]}}, {"type": "Feature", "properties": {"norad_id": 36540, "name": "COSMOS 2251 DEB", "group": "cosmos-2251-debris", "lat": 28.620397937655227, "lon": -155.10432283830102, "alt_km": 702.8057289571498, "timestamp": "2025-12-04T15:47:54.496592+00:00", "meta": {"OBJECT_NAME": "COSMOS 2251 DEB", "OBJECT_ID": "1993-036BDA", "EPOCH": "2025-12-03T21:33:06.393888", "MEAN_MOTION": 14.58350554, "ECCENTRICITY": 0.0015358, "INCLINATION": 74.0291, "RA_OF_ASC_NODE": 197.3519, "ARG_OF_PERICENTER": 268.0064, "MEAN_ANOMALY": 91.9342, "EPHEMERIS_TYPE": 0, "CLASSIFICATION_TYPE": "U", "NORAD_CAT_ID": 36540, "ELEMENT_SET_NO": 999, "REV_AT_EPOCH": 85881, "BSTAR": 0.0020391, "MEAN_MOTION_DOT": 9.439e-05, "MEAN_MOTION_DDOT": 0}, "tle": {"line1": "1 36540U 93036BDA 25337.89799067  .00009439  00000+0  20391-2 0  9995", "line2": "2 36540  74.0291 197.3519 0015358 268.0064  91.9342 14.58350554858814"}}, "geometry": {"type": "Point", "coordinates": [-155.10432283830102, 28.620397937655227]}}, {"type": "Feature", "properties": {"norad_id": 36550, "name": "COSMOS 2251 DEB", "group": "cosmos-2251-debris", "lat": 54.795252884588656, "lon": -128.71878331126308, "alt_km": 848.2523732096988, "timestamp": "2025-12-04T15:47:54.496603+00:00", "meta": {"OBJECT_NAME": "COSMOS 2251 DEB", "OBJECT_ID": "1993-036BDL", "EPOCH": "2025-12-02T08:00:24.910560", "MEAN_MOTION": 14.27149643, "ECCENTRICITY": 0.00787603, "INCLINATION": 74.0451, "RA_OF_ASC_NODE": 211.5637, "ARG_OF_PERICENTER": 264.4889, "MEAN_ANOMALY": 94.7272, "EPHEMERIS_TYPE": 0, "CLASSIFICATION_TYPE": "U", "NORAD_CAT_ID": 36550, "ELEMENT_SET_NO": 999, "REV_AT_EPOCH": 84447, "BSTAR": 0.00078484278, "MEAN_MOTION_DOT": 1.953e-05, "MEAN_MOTION_DDOT": 0}, "tle": {"line1": "1 36550U 93036BDL 25336.33362165  .00001953  00000+0  78484-3 0  9999", "line2": "2 36550  74.0451 211.5637 0078760 264.4889  94.7272 14.27149643844475"}}, "geometry": {"type": "Point", "coordinates": [-128.71878331126308, 54.795252884588656]}}, {"type": "Feature", "properties": {"norad_id": 36551, "name": "COSMOS 2251 DEB", "group": "cosmos-2251-debris", "lat": 73.85460667648688, "lon": 118.2171708483227, "alt_km": 563.4063645278866, "timestamp": "2025-12-04T15:47:54.496613+00:00", "meta": {"OBJECT_NAME": "COSMOS 2251 DEB", "OBJECT_ID": "1993-036BDM", "EPOCH": "2025-12-01T04:16:57.552096", "MEAN_MOTION": 15.01965558, "ECCENTRICITY": 0.00505004, "INCLINATION": 73.8879, "RA_OF_ASC_NODE": 38.501, "ARG_OF_PERICENTER": 349.5182, "MEAN_ANOMALY": 10.4947, "EPHEMERIS_TYPE": 0, "CLASSIFICATION_TYPE": "U", "NORAD_CAT_ID": 36551, "ELEMENT_SET_NO": 999, "REV_AT_EPOCH": 66758, "BSTAR": 0.0014137691, "MEAN_MOTION_DOT": 0.00019039, "MEAN_MOTION_DDOT": 0}, "tle": {"line1": "1 36551U 93036BDM 25335.17844389  .00019039  00000+0  14138-2 0  9993", "line2": "2 36551  73.8879  38.5010 0050500 349.5182  10.4947 15.01965558667585"}}, "geometry": {"type": "Point", "coordinates": [118.2171708483227, 73.85460667648688]}}, {"type": "Feature", "properties": {"norad_id": 36557, "name": "COSMOS 2251 DEB", "group": "cosmos-2251-debris", "lat": 57.15000370398727, "lon": 168.5965662882528, "alt_km": 640.4568887315863, "timestamp": "2025-12-04T15:47:54.496623+00:00", "meta": {"OBJECT_NAME": "COSMOS 2251 DEB", "OBJECT_ID": "1993-036BDT", "EPOCH": "2025-11-29T20:08:28.959648", "MEAN_MOTION": 14.77361907, "ECCENTRICITY": 0.00205231, "INCLINATION": 73.9794, "RA_OF_ASC_NODE": 151.6562, "ARG_OF_PERICENTER": 302.0455, "MEAN_ANOMALY": 57.8725, "EPHEMERIS_TYPE": 0, "CLASSIFICATION_TYPE": "U", "NORAD_CAT_ID": 36557, "ELEMENT_SET_NO": 999, "REV_AT_EPOCH": 33706, "BSTAR": 0.0024129009, "MEAN_MOTION_DOT": 0.00017224, "MEAN_MOTION_DDOT": 0}, "tle": {"line1": "1 36557U 93036BDT 25333.83922407  .00017224  00000+0  24129-2 0  9993", "line2": "2 36557  73.9794 151.6562 0020523 302.0455  57.8725 14.77361907337062"}}, "geometry": {"type": "Point", "coordinates": [168.5965662882528, 57.15000370398727]}}, {"type": "Feature", "properties": {"norad_id": 36558, "name": "COSMOS 2251 DEB", "group": "cosmos-2251-debris", "lat": -58.01538533441563, "lon": 142.57123815178588, "alt_km": 708.0954367606355, "timestamp": "2025-12-04T15:47:54.496633+00:00", "meta": {"OBJECT_NAME": "COSMOS 2251 DEB", "OBJECT_ID": "1993-036BDU", "EPOCH": "2025-12-04T06:10:59.118816", "MEAN_MOTION": 14.55263226, "ECCENTRICITY": 0.00131636, "INCLINATION": 74.0418, "RA_OF_ASC_NODE": 170.6004, "ARG_OF_PERICENTER": 258.9437, "MEAN_ANOMALY": 101.0246, "EPHEMERIS_TYPE": 0, "CLASSIFICATION_TYPE": "U", "NORAD_CAT_ID": 36558, "ELEMENT_SET_NO": 999, "REV_AT_EPOCH": 85145, "BSTAR": 0.0017174664, "MEAN_MOTION_DOT": 7.427e-05, "MEAN_MOTION_DDOT": 0}, "tle": {"line1": "1 36558U 93036BDU 25338.25762869  .00007427  00000+0  17175-2 0  9996", "line2": "2 36558  74.0418 170.6004 0013163 258.9437 101.0246 14.55263226851456"}}, "geometry": {"type": "Point", "coordinates": [142.57123815178588, -58.01538533441563]}}, {"type": "Feature", "properties": {"norad_id": 36559, "name": "COSMOS 2251 DEB", "group": "cosmos-2251-debris", "lat": 72.27492442477302, "lon": 86.49759299657518, "alt_km": 728.2406971987666, "timestamp": "2025-12-04T15:47:54.496643+00:00", "meta": {"OBJECT_NAME": "COSMOS 2251 DEB", "OBJECT_ID": "1993-036BDV", "EPOCH": "2025-12-03T03:17:00.548160", "MEAN_MOTION": 13.95062123, "ECCENTRICITY": 0.02603187, "INCLINATION": 74.1298, "RA_OF_ASC_NODE": 26.2197, "ARG_OF_PERICENTER": 61.9669, "MEAN_ANOMALY": 300.7529, "EPHEMERIS_TYPE": 0, "CLASSIFICATION_TYPE": "U", "NORAD_CAT_ID": 36559, "ELEMENT_SET_NO": 999, "REV_AT_EPOCH": 80960, "BSTAR": 0.0032733881, "MEAN_MOTION_DOT": 5.835e-05, "MEAN_MOTION_DDOT": 0}, "tle": {"line1": "1 36559U 93036BDV 25337.13681190  .00005835  00000+0  32734-2 0  9999", "line2": "2 36559  74.1298  26.2197 0260318  61.9669 300.7529 13.95062123809606"}}, "geometry": {"type": "Point", "coordinates": [86.49759299657518, 72.27492442477302]}}, {"type": "Feature", "properties": {"norad_id": 36614, "name": "COSMOS 2251 DEB", "group": "cosmos-2251-debris", "lat": 6.6115512228796245, "lon": 8.119813098397245, "alt_km": 693.9717479461578, "timestamp": "2025-12-04T15:47:54.496654+00:00", "meta": {"OBJECT_NAME": "COSMOS 2251 DEB", "OBJECT_ID": "1993-036BEC", "EPOCH": "2025-12-03T20:55:07.059072", "MEAN_MOTION": 14.60089968, "ECCENTRICITY": 0.0016551, "INCLINATION": 74.0216, "RA_OF_ASC_NODE": 191.525, "ARG_OF_PERICENTER": 261.9036, "MEAN_ANOMALY": 98.0252, "EPHEMERIS_TYPE": 0, "CLASSIFICATION_TYPE": "U", "NORAD_CAT_ID": 36614, "ELEMENT_SET_NO": 999, "REV_AT_EPOCH": 65483, "BSTAR": 0.0023551, "MEAN_MOTION_DOT": 0.00011335, "MEAN_MOTION_DDOT": 0}, "tle": {"line1": "1 36614U 93036BEC 25337.87160948  .00011335  00000+0  23551-2 0  9994", "line2": "2 36614  74.0216 191.5250 0016551 261.9036  98.0252 14.60089968654833"}}, "geometry": {"type": "Point", "coordinates": [8.119813098397245, 6.6115512228796245]}}, {"type": "Feature", "properties": {"norad_id": 36622, "name": "COSMOS 2251 DEB", "group": "cosmos-2251-debris", "lat": 43.786723430500196, "lon": -34.62982821177586, "alt_km": 684.0825001627945, "timestamp": "2025-12-04T15:47:54.496664+00:00", "meta": {"OBJECT_NAME": "COSMOS 2251 DEB", "OBJECT_ID": "1993-036BEL", "EPOCH": "2025-12-03T05:01:52.297248", "MEAN_MOTION": 14.76062801, "ECCENTRICITY": 0.0068651, "INCLINATION": 74.0123, "RA_OF_ASC_NODE": 164.1599, "ARG_OF_PERICENTER": 301.4502, "MEAN_ANOMALY": 57.9972, "EPHEMERIS_TYPE": 0, "CLASSIFICATION_TYPE": "U", "NORAD_CAT_ID": 36622, "ELEMENT_SET_NO": 999, "REV_AT_EPOCH": 66609, "BSTAR": 0.00094596509, "MEAN_MOTION_DOT": 6.75e-05, "MEAN_MOTION_DDOT": 0}, "tle": {"line1": "1 36622U 93036BEL 25337.20963307  .00006750  00000+0  94597-3 0  9994", "line2": "2 36622  74.0123 164.1599 0068651 301.4502  57.9972 14.76062801666095"}}, "geometry": {"type": "Point", "coordinates": [-34.62982821177586, 43.786723430500196]}}]}